NORAD_CAT_ID,OBJECT_NAME,OBJECT_TYPE,EPOCH,MEAN_MOTION,ECCENTRICITY,INCLINATION,RA_OF_ASC_NODE,ARG_OF_PERICENTER,MEAN_ANOMALY,BSTAR,MEAN_MOTION_DOT,MEAN_MOTION_DDOT,TLE_LINE0,TLE_LINE1,TLE_LINE2,SEMIMAJOR_AXIS,PERIOD,APOGEE,PERIGEE,DECAYED
53256.0,STARLINK-4147,PAYLOAD,2023-09-19 02:35:04,15.08839911,0.0001563,53.2167,285.9713,94.3008,265.8163,6.6071e-05,7.64e-06,0.0,0 STARLINK-4147,1 53256U 22086Q   23262.10768896  .00000764  00000-0  66071-4 0  9990,2 53256  53.2167 285.9713 0001563  94.3008 265.8163 15.08839911 64625,6917.881,95.438,540.827,538.664,0.0
53256.0,STARLINK-4147,PAYLOAD,2023-09-20 08:47:24,15.08831726,0.0001558,53.2166,280.3223,79.3869,280.7299,-3.6755e-05,-8.73e-06,0.0,0 STARLINK-4147,1 53256U 22086Q   23263.36626004 -.00000873  00000-0 -36755-4 0  9992,2 53256  53.2166 280.3223 0001558  79.3869 280.7299 15.08831726 64814,6917.906,95.438,540.848,538.693,0.0
53256.0,STARLINK-4147,PAYLOAD,2023-09-20 18:19:43,15.08836018,0.0001611,53.2167,278.5382,83.7715,276.3461,-2.9954e-05,-7.65e-06,0.0,0 STARLINK-4147,1 53256U 22086Q   23263.76369847 -.00000765  00000-0 -29954-4 0  9998,2 53256  53.2167 278.5382 0001611  83.7715 276.3461 15.08836018 65057,6917.893,95.438,540.872,538.643,0.0
53256.0,STARLINK-4147,PAYLOAD,2023-09-21 02:16:39,15.0883933,0.0001823,53.2166,277.0519,86.3253,273.7948,-1.673e-05,-5.54e-06,0.0,0 STARLINK-4147,1 53256U 22086Q   23264.09489792 -.00000554  00000-0 -16730-4 0  9991,2 53256  53.2166 277.0519 0001823  86.3253 273.7948 15.08839330 64929,6917.882,95.438,541.009,538.486,0.0
53256.0,STARLINK-4147,PAYLOAD,2023-09-21 08:38:11,15.08827086,0.0001573,53.2162,275.8625,84.817,275.3001,0.00019068,2.747e-05,0.0,0 STARLINK-4147,1 53256U 22086Q   23264.35985942  .00002747  00000-0  19068-3 0  9998,2 53256  53.2162 275.8625 0001573  84.8170 275.3001 15.08827086 65140,6917.92,95.438,540.873,538.697,0.0
53256.0,STARLINK-4147,PAYLOAD,2023-09-21 18:10:30,15.08840405,0.0001544,53.216,274.0785,82.6233,277.4935,6.595e-05,7.62e-06,0.0,0 STARLINK-4147,1 53256U 22086Q   23264.75729533  .00000762  00000-0  65950-4 0  9991,2 53256  53.2160 274.0785 0001544  82.6233 277.4935 15.08840405 65206,6917.879,95.438,540.812,538.676,0.0
53256.0,STARLINK-4147,PAYLOAD,2023-09-22 06:53:34,15.08844453,0.0001451,53.2157,271.6977,86.5406,273.5752,0.00016445,2.331e-05,0.0,0 STARLINK-4147,1 53256U 22086Q   23265.28721057  .00002331  00000-0  16445-3 0  9991,2 53256  53.2157 271.6977 0001451  86.5406 273.5752 15.08844453 65100,6917.867,95.437,540.736,538.728,0.0
53256.0,STARLINK-4147,PAYLOAD,2023-09-22 18:01:16,15.08847145,0.0001458,53.2156,269.6164,85.7932,274.3227,0.00015881,2.241e-05,0.0,0 STARLINK-4147,1 53256U 22086Q   23265.75088799  .00002241  00000-0  15881-3 0  9995,2 53256  53.2156 269.6164 0001458  85.7932 274.3227 15.08847145 65350,6917.859,95.437,540.732,538.715,0.0
53256.0,STARLINK-4147,PAYLOAD,2023-09-23 00:22:49,15.08840859,0.000145,53.2151,268.4268,85.9091,274.2067,9.0528e-05,1.153e-05,0.0,0 STARLINK-4147,1 53256U 22086Q   23266.01585476  .00001153  00000-0  90528-4 0  9992,2 53256  53.2151 268.4268 0001450  85.9091 274.2067 15.08840859 65218,6917.878,95.438,540.746,538.74,0.0
53256.0,STARLINK-4147,PAYLOAD,2023-09-23 06:44:22,15.08845315,0.0001415,53.2145,267.2352,92.3099,267.8055,0.00011736,1.581e-05,0.0,0 STARLINK-4147,1 53256U 22086Q   23266.28081043  .00001581  00000-0  11736-3 0  9990,2 53256  53.2145 267.2352 0001415  92.3099 267.8055 15.08845315 65434,6917.864,95.437,540.708,538.75,0.0
53256.0,STARLINK-4147,PAYLOAD,2023-09-24 00:13:37,15.08838147,0.0001456,53.2146,263.9646,95.9094,264.2064,-4.0783e-05,-9.37e-06,0.0,0 STARLINK-4147,1 53256U 22086Q   23267.00945891 -.00000937  00000-0 -40783-4 0  9992,2 53256  53.2146 263.9646 0001456  95.9094 264.2064 15.08838147 65361,6917.886,95.438,540.758,538.744,0.0
53256.0,STARLINK-4147,PAYLOAD,2023-09-24 06:35:09,15.08840705,0.000144,53.2155,262.7762,92.9133,267.2024,-9.101e-06,-4.33e-06,0.0,0 STARLINK-4147,1 53256U 22086Q   23267.27441640 -.00000433  00000-0 -91010-5 0  9995,2 53256  53.2155 262.7762 0001440  92.9133 267.2024 15.08840705 65587,6917.878,95.438,540.739,538.747,0.0
53256.0,STARLINK-4147,PAYLOAD,2023-09-25 06:25:56,15.08843772,0.0001329,53.2157,258.3154,91.0945,269.0199,7.3539e-05,8.83e-06,0.0,0 STARLINK-4147,1 53256U 22086Q   23268.26801314  .00000883  00000-0  73539-4 0  9995,2 53256  53.2157 258.3154 0001329  91.0945 269.0199 15.08843772 65559,6917.869,95.437,540.653,538.814,0.0
53256.0,STARLINK-4147,PAYLOAD,2023-09-25 15:58:14,15.0884653,0.0001383,53.216,256.5319,93.9096,266.2054,5.1913e-05,5.38e-06,0.0,0 STARLINK-4147,1 53256U 22086Q   23268.66545131  .00000538  00000-0  51913-4 0  9990,2 53256  53.2160 256.5319 0001383  93.9096 266.2054 15.08846530 65794,6917.86,95.437,540.682,538.769,0.0
53256.0,STARLINK-4147,PAYLOAD,2023-09-26 07:52:05,15.08855784,0.0001364,53.2164,253.5593,96.7129,263.4018,0.0002306,3.386e-05,0.0,0 STARLINK-4147,1 53256U 22086Q   23269.32784147  .00003386  00000-0  23060-3 0  9991,2 53256  53.2164 253.5593 0001364  96.7129 263.4018 15.08855784 65718,6917.832,95.437,540.641,538.754,0.0
53256.0,STARLINK-4147,PAYLOAD,2023-09-26 23:45:58,15.08834841,0.0001284,53.2151,250.5842,93.9778,266.1361,-7.0372e-05,-1.408e-05,0.0,0 STARLINK-4147,1 53256U 22086Q   23269.99025586 -.00001408  00000-0 -70372-4 0  9993,2 53256  53.2151 250.5842 0001284  93.9778 266.1361 15.08834841 65811,6917.896,95.438,540.649,538.873,0.0
53256.0,STARLINK-4147,PAYLOAD,2023-09-27 09:18:17,15.08833407,0.0001453,53.2148,248.8003,86.0224,274.0934,-7.3398e-05,-1.456e-05,0.0,0 STARLINK-4147,1 53256U 22086Q   23270.38769890 -.00001456  00000-0 -73398-4 0  9995,2 53256  53.2148 248.8003 0001453  86.0224 274.0934 15.08833407 66051,6917.901,95.438,540.771,538.76,0.0
53256.0,STARLINK-4147,PAYLOAD,2023-09-28 02:47:32,15.08830598,0.000141,53.2149,245.5268,92.4003,267.715,-6.2378e-05,-1.28e-05,0.0,0 STARLINK-4147,1 53256U 22086Q   23271.11634410 -.00001280  00000-0 -62378-4 0  9997,2 53256  53.2149 245.5268 0001410  92.4003 267.7150 15.08830598 65986,6917.909,95.438,540.75,538.799,0.0
53256.0,STARLINK-4147,PAYLOAD,2023-09-28 07:33:41,15.08835701,0.0001522,53.2153,244.6347,86.2992,273.8174,-3.8857e-05,-9.06e-06,0.0,0 STARLINK-4147,1 53256U 22086Q   23271.31506309 -.00000906  00000-0 -38857-4 0  9993,2 53256  53.2153 244.6347 0001522  86.2992 273.8174 15.08835701 66190,6917.894,95.438,540.811,538.706,0.0
53256.0,STARLINK-4147,PAYLOAD,2023-09-28 23:27:33,15.08836879,0.0001574,53.2154,241.661,87.1522,272.965,0.00026361,3.909e-05,0.0,0 STARLINK-4147,1 53256U 22086Q   23271.97746629  .00003909  00000-0  26361-3 0  9996,2 53256  53.2154 241.6610 0001574  87.1522 272.9650 15.08836879 66115,6917.89,95.438,540.844,538.666,0.0
53256.0,STARLINK-4147,PAYLOAD,2023-09-29 07:24:28,15.08849739,0.000156,53.2151,240.1742,88.5364,271.5807,0.00044708,6.836e-05,0.0,0 STARLINK-4147,1 53256U 22086Q   23272.30866153  .00006836  00000-0  44708-3 0  9996,2 53256  53.2151 240.1742 0001560  88.5364 271.5807 15.08849739 66169,6917.851,95.437,540.795,538.636,0.0
53256.0,STARLINK-4147,PAYLOAD,2023-09-30 04:04:28,15.08859725,0.0001661,53.2155,236.3059,83.2499,276.8682,0.00035718,5.404e-05,0.0,0 STARLINK-4147,1 53256U 22086Q   23273.16977417  .00005404  00000-0  35718-3 0  9998,2 53256  53.2155 236.3059 0001661  83.2499 276.8682 15.08859725 66473,6917.82,95.436,540.834,538.536,0.0
53256.0,STARLINK-4147,PAYLOAD,2023-09-30 15:12:11,15.08837636,0.0002214,53.2156,234.2247,90.586,269.5386,-0.0001053,-1.964e-05,0.0,0 STARLINK-4147,1 53256U 22086Q   23273.63346092 -.00001964  00000-0 -10530-3 0  9993,2 53256  53.2156 234.2247 0002214  90.5860 269.5386 15.08837636 66363,6917.888,95.438,541.284,538.221,0.0
53256.0,STARLINK-4147,PAYLOAD,2023-10-01 03:55:16,15.08832602,0.0001708,53.2156,231.8463,87.9814,272.1373,-0.00021595,-3.723e-05,0.0,0 STARLINK-4147,1 53256U 22086Q   23274.16338235 -.00003723  00000-0 -21595-3 0  9990,2 53256  53.2156 231.8463 0001708  87.9814 272.1373 15.08832602 66625,6917.903,95.438,540.95,538.586,0.0
53256.0,STARLINK-4147,PAYLOAD,2023-10-01 21:24:30,15.08838342,0.000178,53.2175,228.5781,96.2933,263.8262,-5.6961e-05,-1.195e-05,0.0,0 STARLINK-4147,1 53256U 22086Q   23274.89202419 -.00001195  00000-0 -56961-4 0  9991,2 53256  53.2175 228.5781 0001780  96.2933 263.8262 15.08838342 66730,6917.885,95.438,540.982,538.519,0.0
53256.0,STARLINK-4147,PAYLOAD,2023-10-02 02:10:40,15.08841788,0.0001755,53.2164,227.686,86.8051,273.3142,0.00013964,1.935e-05,0.0,0 STARLINK-4147,1 53256U 22086Q   23275.09074458  .00001935  00000-0  13964-3 0  9999,2 53256  53.2164 227.6860 0001755  86.8051 273.3142 15.08841788 66588,6917.875,95.437,540.954,538.526,0.0
53256.0,STARLINK-4147,PAYLOAD,2023-10-02 06:56:49,15.08847616,0.0001675,53.2165,226.7927,85.8697,274.2487,0.00077299,0.00012038,0.0,0 STARLINK-4147,1 53256U 22086Q   23275.28946650  .00012038  00000-0  77299-3 0  9999,2 53256  53.2165 226.7927 0001675  85.8697 274.2487 15.08847616 66790,6917.857,95.437,540.881,538.563,0.0
53256.0,STARLINK-4147,PAYLOAD,2023-10-03 03:36:50,15.08851415,0.0001365,53.2155,222.9274,87.749,272.3659,0.00047105,7.219e-05,0.0,0 STARLINK-4147,1 53256U 22086Q   23276.15058439  .00007219  00000-0  47105-3 0  9993,2 53256  53.2155 222.9274 0001365  87.7490 272.3659 15.08851415 66747,6917.845,95.437,540.655,538.766,0.0
53256.0,STARLINK-4147,PAYLOAD,2023-10-03 06:47:36,15.08858723,0.0001371,53.2155,222.3325,89.6091,270.5059,0.00063431,9.827e-05,0.0,0 STARLINK-4147,1 53256U 22086Q   23276.28306220  .00009827  00000-0  63431-3 0  9998,2 53256  53.2155 222.3325 0001371  89.6091 270.5059 15.08858723 66948,6917.823,95.436,540.637,538.74,0.0
53256.0,STARLINK-4147,PAYLOAD,2023-10-04 05:03:01,15.08836785,0.0001761,53.2157,218.1668,88.377,271.7424,0.00039198,5.955e-05,0.0,0 STARLINK-4147,1 53256U 22086Q   23277.21043126  .00005955  00000-0  39198-3 0  9996,2 53256  53.2157 218.1668 0001761  88.3770 271.7424 15.08836785 66905,6917.89,95.438,540.973,538.537,0.0
